COMMENT,ORIGINATOR,NORAD_CAT_ID,OBJECT_NAME,OBJECT_TYPE,CLASSIFICATION_TYPE,INTLDES,EPOCH,EPOCH_MICROSECONDS,MEAN_MOTION,ECCENTRICITY,INCLINATION,RA_OF_ASC_NODE,ARG_OF_PERICENTER,MEAN_ANOMALY,EPHEMERIS_TYPE,ELEMENT_SET_NO,REV_AT_EPOCH,BSTAR,MEAN_MOTION_DOT,MEAN_MOTION_DDOT,FILE,TLE_LINE0,TLE_LINE1,TLE_LINE2,OBJECT_ID,OBJECT_NUMBER,SEMIMAJOR_AXIS,PERIOD,APOGEE,PERIGEE,DECAYED
"GENERATED VIA SPACETRACK.ORG API","18 SPCS","55102","SPACEBEE-157","PAYLOAD","U","23001CX","2023-03-16 03:03:43","957440","15.16784882","0.0015294","97.4881","136.2476","330.0587","29.977","0","999","1098","0.0014284","0.00028152","0","3862295","0 SPACEBEE-157","1 55102U 23001CX  23075.12759210  .00028152  00000-0  14284-2 0  9992","2 55102  97.4881 136.2476 0015294 330.0587  29.9770 15.16784882 10980","2023-001CX","55102","6893.702","94.938","526.110","505.024","0"
"GENERATED VIA SPACETRACK.ORG API","18 SPCS","55102","SPACEBEE-157","PAYLOAD","U","23001CX","2023-03-17 02:48:40","398336","15.16835796","0.0014578","97.4887","137.2257","327.2087","32.824","0","999","1113","0.0011891","0.00023437","0","3862812","0 SPACEBEE-157","1 55102U 23001CX  23076.11713424  .00023437  00000-0  11891-2 0  9991","2 55102  97.4887 137.2257 0014578 327.2087  32.8240 15.16835796 11135","2023-001CX","55102","6893.548","94.934","525.462","505.363","0"
"GENERATED VIA SPACETRACK.ORG API","18 SPCS","55102","SPACEBEE-157","PAYLOAD","U","23001CX","2023-03-17 10:43:38","634816","15.16847601","0.0014579","97.4894","137.5519","325.4953","34.5333","0","999","1118","0.00097886","0.00019277","0","3863278","0 SPACEBEE-157","1 55102U 23001CX  23076.44697494  .00019277  00000-0  97886-3 0  9991","2 55102  97.4894 137.5519 0014579 325.4953  34.5333 15.16847601 11185","2023-001CX","55102","6893.512","94.934","525.427","505.327","0"
"GENERATED VIA SPACETRACK.ORG API","18 SPCS","55102","SPACEBEE-157","PAYLOAD","U","23001CX","2023-03-18 10:28:31","895328","15.16889973","0.0014593","97.4895","138.5297","321.9062","38.1139","0","999","1133","0.00099643","0.00019649","0","3864062","0 SPACEBEE-157","1 55102U 23001CX  23077.43648027  .00019649  00000-0  99643-3 0  9995","2 55102  97.4895 138.5297 0014593 321.9062  38.1139 15.16889973 11337","2023-001CX","55102","6893.384","94.931","525.308","505.189","0"
"GENERATED VIA SPACETRACK.ORG API","18 SPCS","55102","SPACEBEE-157","PAYLOAD","U","23001CX","2023-03-18 21:33:27","956736","15.16909667","0.0014484","97.4888","138.9858","320.6724","39.3457","0","999","1140","0.00097095","0.00019154","0","3864479","0 SPACEBEE-157","1 55102U 23001CX  23077.89824024  .00019154  00000-0  97095-3 0  9998","2 55102  97.4888 138.9858 0014484 320.6724  39.3457 15.16909667 11403","2023-001CX","55102","6893.324","94.930","525.173","505.205","0"
"GENERATED VIA SPACETRACK.ORG API","18 SPCS","55102","SPACEBEE-157","PAYLOAD","U","23001CX","2023-03-19 10:13:22","829952","15.16931988","0.0014428","97.4888","139.5069","318.6721","41.3419","0","999","1148","0.00094908","0.00018731","0","3865049","0 SPACEBEE-157","1 55102U 23001CX  23078.42595868  .00018731  00000-0  94908-3 0  9999","2 55102  97.4888 139.5069 0014428 318.6721  41.3419 15.16931988 11486","2023-001CX","55102","6893.256","94.928","525.067","505.176","0"
"GENERATED VIA SPACETRACK.ORG API","18 SPCS","55102","SPACEBEE-157","PAYLOAD","U","23001CX","2023-03-19 16:33:19","992672","15.16945944","0.0014401","97.4888","139.7675","317.6533","42.3588","0","999","1152","0.0010477","0.00020698","0","3865224","0 SPACEBEE-157","1 55102U 23001CX  23078.68981473  .00020698  00000-0  10477-2 0  9991","2 55102  97.4888 139.7675 0014401 317.6533  42.3588 15.16945944 11522","2023-001CX","55102","6893.214","94.928","525.006","505.152","0"
"GENERATED VIA SPACETRACK.ORG API","18 SPCS","55102","SPACEBEE-157","PAYLOAD","U","23001CX","2023-03-19 16:33:19","992672","15.16945944","0.0014401","97.4888","139.7675","317.6533","42.3588","0","999","1152","0.0010477","0.00020698","0","3865354","0 SPACEBEE-157","1 55102U 23001CX  23078.68981473  .00020698  00000-0  10477-2 0  9991","2 55102  97.4888 139.7675 0014401 317.6533  42.3588 15.16945944 11522","2023-001CX","55102","6893.214","94.928","525.006","505.152","0"
"GENERATED VIA SPACETRACK.ORG API","18 SPCS","55102","SPACEBEE-157","PAYLOAD","U","23001CX","2023-03-20 09:58:11","335872","15.1697663","0.0014401","97.4882","140.4841","314.8118","45.1943","0","999","1163","0.0010595","0.00020951","0","3865912","0 SPACEBEE-157","1 55102U 23001CX  23079.41540898  .00020951  00000-0  10595-2 0  9998","2 55102  97.4882 140.4841 0014401 314.8118  45.1943 15.16976630 11632","2023-001CX","55102","6893.121","94.926","524.913","505.059","0"
"GENERATED VIA SPACETRACK.ORG API","18 SPCS","55102","SPACEBEE-157","PAYLOAD","U","23001CX","2023-03-20 17:53:07","3680","15.16990544","0.0014371","97.4876","140.8099","313.5955","46.4085","0","999","1168","0.0010542","0.00020854","0","3866115","0 SPACEBEE-157","1 55102U 23001CX  23079.74521995  .00020854  00000-0  10542-2 0  9995","2 55102  97.4876 140.8099 0014371 313.5955  46.4085 15.16990544 11681","2023-001CX","55102","6893.079","94.925","524.850","505.038","0"
"GENERATED VIA SPACETRACK.ORG API","18 SPCS","55102","SPACEBEE-157","PAYLOAD","U","23001CX","2023-03-21 03:23:01","407264","15.17008011","0.0014454","97.4871","141.2009","311.978","48.0221","0","999","1174","0.0011066","0.00021908","0","3866350","0 SPACEBEE-157","1 55102U 23001CX  23080.14098851  .00021908  00000-0  11066-2 0  9994","2 55102  97.4871 141.2009 0014454 311.9780  48.0221 15.17008011 11749","2023-001CX","55102","6893.026","94.924","524.854","504.928","0"
"GENERATED VIA SPACETRACK.ORG API","18 SPCS","55102","SPACEBEE-157","PAYLOAD","U","23001CX","2023-03-21 03:23:01","407264","15.17008011","0.0014454","97.4871","141.2009","311.978","48.0221","0","999","1174","0.0011066","0.00021908","0","3866730","0 SPACEBEE-157","1 55102U 23001CX  23080.14098851  .00021908  00000-0  11066-2 0  9994","2 55102  97.4871 141.2009 0014454 311.9780  48.0221 15.17008011 11749","2023-001CX","55102","6893.026","94.924","524.854","504.928","0"
"GENERATED VIA SPACETRACK.ORG API","18 SPCS","55102","SPACEBEE-157","PAYLOAD","U","23001CX","2023-03-22 04:42:44","490528","15.17056926","0.0014415","97.4864","142.2435","307.8933","52.0996","0","999","1190","0.0011413","0.00022631","0","3867161","0 SPACEBEE-157","1 55102U 23001CX  23081.19634827  .00022631  00000-0  11413-2 0  9999","2 55102  97.4864 142.2435 0014415 307.8933  52.0996 15.17056926 11906","2023-001CX","55102","6892.878","94.921","524.679","504.807","0"
"GENERATED VIA SPACETRACK.ORG API","18 SPCS","55102","SPACEBEE-157","PAYLOAD","U","23001CX","2023-03-22 15:47:36","161952","15.17080419","0.0014389","97.4863","142.6994","305.977","54.0128","0","999","1197","0.0012108","0.00024034","0","3868201","0 SPACEBEE-157","1 55102U 23001CX  23081.65805743  .00024034  00000-0  12108-2 0  9998","2 55102  97.4863 142.6994 0014389 305.9770  54.0128 15.17080419 11977","2023-001CX","55102","6892.807","94.919","524.590","504.754","0"
"GENERATED VIA SPACETRACK.ORG API","18 SPCS","55102","SPACEBEE-157","PAYLOAD","U","23001CX","2023-03-23 02:52:27","208704","15.17102628","0.0014379","97.486","143.1558","304.3208","55.6664","0","999","1204","0.0011298","0.00022431","0","3868494","0 SPACEBEE-157","1 55102U 23001CX  23082.11975936  .00022431  00000-0  11298-2 0  9990","2 55102  97.4860 143.1558 0014379 304.3208  55.6664 15.17102628 12042","2023-001CX","55102","6892.740","94.918","524.516","504.693","0"
"GENERATED VIA SPACETRACK.ORG API","18 SPCS","55102","SPACEBEE-157","PAYLOAD","U","23001CX","2023-03-23 17:07:14","920896","15.17131791","0.0014347","97.4862","143.742","302.2124","57.7718","0","999","1213","0.0012332","0.00024517","0","3868716","0 SPACEBEE-157","1 55102U 23001CX  23082.71336714  .00024517  00000-0  12332-2 0  9998","2 55102  97.4862 143.7420 0014347 302.2124  57.7718 15.17131791 12133","2023-001CX","55102","6892.651","94.916","524.405","504.627","0"
"GENERATED VIA SPACETRACK.ORG API","18 SPCS","55102","SPACEBEE-157","PAYLOAD","U","23001CX","2023-03-23 21:52:10","461216","15.17151807","0.0014322","97.486","143.938","301.4589","58.5244","0","999","1216","0.0017637","0.00035163","0","3868816","0 SPACEBEE-157","1 55102U 23001CX  23082.91123219  .00035163  00000-0  17637-2 0  9996","2 55102  97.4860 143.9380 0014322 301.4589  58.5244 15.17151807 12163","2023-001CX","55102","6892.591","94.915","524.327","504.584","0"
"GENERATED VIA SPACETRACK.ORG API","18 SPCS","55102","SPACEBEE-157","PAYLOAD","U","23001CX","2023-03-24 02:37:05","851200","15.17166253","0.0014403","97.4864","144.1335","300.5473","59.4338","0","999","1219","0.0017761","0.00035427","0","3869028","0 SPACEBEE-157","1 55102U 23001CX  23083.10909550  .00035427  00000-0  17761-2 0  9999","2 55102  97.4864 144.1335 0014403 300.5473  59.4338 15.17166253 12190","2023-001CX","55102","6892.547","94.914","524.339","504.484","0"
"GENERATED VIA SPACETRACK.ORG API","18 SPCS","55102","SPACEBEE-157","PAYLOAD","U","23001CX","2023-03-24 02:37:05","851200","15.17166253","0.0014403","97.4864","144.1335","300.5473","59.4338","0","999","1219","0.0017761","0.00035427","0","3869846","0 SPACEBEE-157","1 55102U 23001CX  23083.10909550  .00035427  00000-0  17761-2 0  9999","2 55102  97.4864 144.1335 0014403 300.5473  59.4338 15.17166253 12190","2023-001CX","55102","6892.547","94.914","524.339","504.484","0"
"GENERATED VIA SPACETRACK.ORG API","18 SPCS","55102","SPACEBEE-157","PAYLOAD","U","23001CX","2023-03-25 16:36:22","682016","15.17278335","0.0014206","97.486","145.6975","294.7678","65.2077","0","999","1243","0.0013347","0.00026658","0","3870959","0 SPACEBEE-157","1 55102U 23001CX  23084.69192919  .00026658  00000-0  13347-2 0  9999","2 55102  97.4860 145.6975 0014206 294.7678  65.2077 15.17278335 12431","2023-001CX","55102","6892.207","94.907","523.863","504.281","0"
